{"type": "FeatureCollection", "features": [ {"type": "Feature", "properties": {"norad_id": 37326, "name": "COSMOS 2251 DEB", "group": "cosmos-2251-debris", "lat": -73.95193469084425, "lon": -101.1137618569946, "alt_km": 725.9957783878508, "timestamp": "2025-12-02T13:52:17.658998+00:00", "meta": {"OBJECT_NAME": "COSMOS 2251 DEB", "OBJECT_ID": "1993-036BKS", "EPOCH": "2025-11-27T19:17:38.237856", "MEAN_MOTION": 14.61468685, "ECCENTRICITY": 0.00552422, "INCLINATION": 74.0262, "RA_OF_ASC_NODE": 3.2841, "ARG_OF_PERICENTER": 136.8831, "MEAN_ANOMALY": 223.6683, "EPHEMERIS_TYPE": 0, "CLASSIFICATION_TYPE": "U", "NORAD_CAT_ID": 37326, "ELEMENT_SET_NO": 999, "REV_AT_EPOCH": 85265, "BSTAR": 0.00046910947, "MEAN_MOTION_DOT": 2.345e-05, "MEAN_MOTION_DDOT": 0}, "tle": {"line1": "1 37326U 93036BKS 25331.80391479  .00002345  00000+0  46911-3 0  9994", "line2": "2 37326  74.0262   3.2841 0055242 136.8831 223.6683 14.61468685852655"}}, "geometry": {"type": "Point", "coordinates": [-101.1137618569946, -73.95193469084425]}}, {"type": "Feature", "properties": {"norad_id": 37330, "name": "COSMOS 2251 DEB", "group": "cosmos-2251-debris", "lat": -20.486259993283223, "lon": -51.6601026047268, "alt_km": 740.0807529327521, "timestamp": "2025-12-02T13:52:17.659008+00:00", "meta": {"OBJECT_NAME": "COSMOS 2251 DEB", "OBJECT_ID": "1993-036BKW", "EPOCH": "2025-12-01T16:35:02.444064", "MEAN_MOTION": 14.59484724, "ECCENTRICITY": 0.00575212, "INCLINATION": 74.017, "RA_OF_ASC_NODE": 316.1795, "ARG_OF_PERICENTER": 167.7697, "MEAN_ANOMALY": 192.4881, "EPHEMERIS_TYPE": 0, "CLASSIFICATION_TYPE": "U", "NORAD_CAT_ID": 37330, "ELEMENT_SET_NO": 999, "REV_AT_EPOCH": 86207, "BSTAR": 0.00032461737, "MEAN_MOTION_DOT": 1.545e-05, "MEAN_MOTION_DDOT": 0}, "tle": {"line1": "1 37330U 93036BKW 25335.69100051  .00001545  00000+0  32462-3 0  9991", "line2": "2 37330  74.0170 316.1795 0057521 167.7697 192.4881 14.59484724862076"}}, "geometry": {"type": "Point", "coordinates": [-51.6601026047268, -20.486259993283223]}}, {"type": "Feature", "properties": {"norad_id": 37331, "name": "COSMOS 2251 DEB", "group": "cosmos-2251-debris", "lat": -72.46495730242758, "lon": 21.81411544025804, "alt_km": 821.5148672206897, "timestamp": "2025-12-02T13:52:17.659019+00:00", "meta": {"OBJECT_NAME": "COSMOS 2251 DEB", "OBJECT_ID": "1993-036BKX", "EPOCH": "2025-12-01T01:26:56.105376", "MEAN_MOTION": 14.34963315, "ECCENTRICITY": 0.0055446, "INCLINATION": 74.0748, "RA_OF_ASC_NODE": 89.2257, "ARG_OF_PERICENTER": 107.2854, "MEAN_ANOMALY": 253.4376, "EPHEMERIS_TYPE": 0, "CLASSIFICATION_TYPE": "U", "NORAD_CAT_ID": 37331, "ELEMENT_SET_NO": 999, "REV_AT_EPOCH": 84592, "BSTAR": 0.00070853607, "MEAN_MOTION_DOT": 2.027e-05, "MEAN_MOTION_DDOT": 0}, "tle": {"line1": "1 37331U 93036BKX 25335.06037159  .00002027  00000+0  70854-3 0  9994", "line2": "2 37331  74.0748  89.2257 0055446 107.2854 253.4376 14.34963315845920"}}, "geometry": {"type": "Point", "coordinates": [21.81411544025804, -72.46495730242758]}}, {"type": "Feature", "properties": {"norad_id": 37336, "name": "COSMOS 2251 DEB", "group": "cosmos-2251-debris", "lat": -19.851461529721725, "lon": -16.16315321504226, "alt_km": 787.7854091048857, "timestamp": "2025-12-02T13:52:17.659029+00:00", "meta": {"OBJECT_NAME": "COSMOS 2251 DEB", "OBJECT_ID": "1993-036BLC", "EPOCH": "2025-12-01T07:48:14.136768", "MEAN_MOTION": 14.32750931, "ECCENTRICITY": 0.00286304, "INCLINATION": 74.0414, "RA_OF_ASC_NODE": 352.0528, "ARG_OF_PERICENTER": 73.4193, "MEAN_ANOMALY": 287.0099, "EPHEMERIS_TYPE": 0, "CLASSIFICATION_TYPE": "U", "NORAD_CAT_ID": 37336, "ELEMENT_SET_NO": 999, "REV_AT_EPOCH": 64956, "BSTAR": 8.422431e-05, "MEAN_MOTION_DOT": 2.05e-06, "MEAN_MOTION_DDOT": 0}, "tle": {"line1": "1 37336U 93036BLC 25335.32516362  .00000205  00000+0  84224-4 0  9999", "line2": "2 37336  74.0414 352.0528 0028630  73.4193 287.0099 14.32750931649565"}}, "geometry": {"type": "Point", "coordinates": [-16.16315321504226, -19.851461529721725]}}, {"type": "Feature", "properties": {"norad_id": 37340, "name": "COSMOS 2251 DEB", "group": "cosmos-2251-debris", "lat": 45.532330085176234, "lon": -47.180770023010545, "alt_km": 752.462140297428, "timestamp": "2025-12-02T13:52:17.659039+00:00", "meta": {"OBJECT_NAME": "COSMOS 2251 DEB", "OBJECT_ID": "1993-036BLG", "EPOCH": "2025-12-01T05:54:08.396928", "MEAN_MOTION": 14.3689951, "ECCENTRICITY": 0.0017334, "INCLINATION": 74.0257, "RA_OF_ASC_NODE": 298.3019, "ARG_OF_PERICENTER": 36.3032, "MEAN_ANOMALY": 323.9293, "EPHEMERIS_TYPE": 0, "CLASSIFICATION_TYPE": "U", "NORAD_CAT_ID": 37340, "ELEMENT_SET_NO": 999, "REV_AT_EPOCH": 83902, "BSTAR": 0.00025196, "MEAN_MOTION_DOT": 7.2e-06, "MEAN_MOTION_DDOT": 0}, "tle": {"line1": "1 37340U 93036BLG 25335.24593052  .00000720  00000+0  25196-3 0  9990", "line2": "2 37340  74.0257 298.3019 0017334  36.3032 323.9293 14.36899510839020"}}, "geometry": {"type": "Point", "coordinates": [-47.180770023010545, 45.532330085176234]}}, {"type": "Feature", "properties": {"norad_id": 37483, "name": "COSMOS 2251 DEB", "group": "cosmos-2251-debris", "lat": -72.50895258038905, "lon": 96.48345477193136, "alt_km": 757.8309813609649, "timestamp": "2025-12-02T13:52:17.659049+00:00", "meta": {"OBJECT_NAME": "COSMOS 2251 DEB", "OBJECT_ID": "1993-036BLL", "EPOCH": "2025-11-29T19:43:16.041216", "MEAN_MOTION": 14.43525894, "ECCENTRICITY": 0.00924841, "INCLINATION": 73.9722, "RA_OF_ASC_NODE": 167.4348, "ARG_OF_PERICENTER": 16.8893, "MEAN_ANOMALY": 343.5306, "EPHEMERIS_TYPE": 0, "CLASSIFICATION_TYPE": "U", "NORAD_CAT_ID": 37483, "ELEMENT_SET_NO": 999, "REV_AT_EPOCH": 65093, "BSTAR": 0.00019069876, "MEAN_MOTION_DOT": 6.51e-06, "MEAN_MOTION_DDOT": 0}, "tle": {"line1": "1 37483U 93036BLL 25333.82171344  .00000651  00000+0  19070-3 0  9993", "line2": "2 37483  73.9722 167.4348 0092484  16.8893 343.5306 14.43525894650934"}}, "geometry": {"type": "Point", "coordinates": [96.48345477193136, -72.50895258038905]}}, {"type": "Feature", "properties": {"norad_id": 37484, "name": "COSMOS 2251 DEB", "group": "cosmos-2251-debris", "lat": -49.34065102623137, "lon": 67.26535143638479, "alt_km": 734.8464437196044, "timestamp": "2025-12-02T13:52:17.659059+00:00", "meta": {"OBJECT_NAME": "COSMOS 2251 DEB", "OBJECT_ID": "1993-036BLM", "EPOCH": "2025-12-01T23:33:59.283360", "MEAN_MOTION": 14.41705464, "ECCENTRICITY": 0.00403232, "INCLINATION": 73.8236, "RA_OF_ASC_NODE": 228.6314, "ARG_OF_PERICENTER": 264.9502, "MEAN_ANOMALY": 115.0574, "EPHEMERIS_TYPE": 0, "CLASSIFICATION_TYPE": "U", "NORAD_CAT_ID": 37484, "ELEMENT_SET_NO": 999, "REV_AT_EPOCH": 65224, "BSTAR": 0.00080475582, "MEAN_MOTION_DOT": 2.622e-05, "MEAN_MOTION_DDOT": 0}, "tle": {"line1": "1 37484U 93036BLM 25335.98193615  .00002622  00000+0  80476-3 0  9996", "line2": "2 37484  73.8236 228.6314 0040323 264.9502 115.0574 14.41705464652241"}}, "geometry": {"type": "Point", "coordinates": [67.26535143638479, -49.34065102623137]}}, {"type": "Feature", "properties": {"norad_id": 37486, "name": "COSMOS 2251 DEB", "group": "cosmos-2251-debris", "lat": 72.86847692717437, "lon": -118.83619913727698, "alt_km": 844.6752351813793, "timestamp": "2025-12-02T13:52:17.659069+00:00", "meta": {"OBJECT_NAME": "COSMOS 2251 DEB", "OBJECT_ID": "1993-036BLP", "EPOCH": "2025-12-01T17:07:10.517952", "MEAN_MOTION": 14.13177303, "ECCENTRICITY": 0.02290014, "INCLINATION": 73.6881, "RA_OF_ASC_NODE": 134.5321, "ARG_OF_PERICENTER": 4.4169, "MEAN_ANOMALY": 10.9696, "EPHEMERIS_TYPE": 0, "CLASSIFICATION_TYPE": "U", "NORAD_CAT_ID": 37486, "ELEMENT_SET_NO": 999, "REV_AT_EPOCH": 63214, "BSTAR": 0.0017627564, "MEAN_MOTION_DOT": 4.208e-05, "MEAN_MOTION_DDOT": 0}, "tle": {"line1": "1 37486U 93036BLP 25335.71331618  .00004208  00000+0  17628-2 0  9996", "line2": "2 37486  73.6881 134.5321 0229001   4.4169  10.9696 14.13177303632147"}}, "geometry": {"type": "Point", "coordinates": [-118.83619913727698, 72.86847692717437]}}, {"type": "Feature", "properties": {"norad_id": 37487, "name": "COSMOS 2251 DEB", "group": "cosmos-2251-debris", "lat": -57.84559506380134, "lon": 59.63254067386885, "alt_km": 652.5057447093122, "timestamp": "2025-12-02T13:52:17.659079+00:00", "meta": {"OBJECT_NAME": "COSMOS 2251 DEB", "OBJECT_ID": "1993-036BLQ", "EPOCH": "2025-12-01T23:48:28.965888", "MEAN_MOTION": 14.80278568, "ECCENTRICITY": 0.00251943, "INCLINATION": 73.9034, "RA_OF_ASC_NODE": 213.4502, "ARG_OF_PERICENTER": 53.563, "MEAN_ANOMALY": 306.7863, "EPHEMERIS_TYPE": 0, "CLASSIFICATION_TYPE": "U", "NORAD_CAT_ID": 37487, "ELEMENT_SET_NO": 999, "REV_AT_EPOCH": 81086, "BSTAR": 0.0032385878, "MEAN_MOTION_DOT": 0.00024856, "MEAN_MOTION_DDOT": 0}, "tle": {"line1": "1 37487U 93036BLQ 25335.99200192  .00024856  00000+0  32386-2 0  9998", "line2": "2 37487  73.9034 213.4502 0025194  53.5630 306.7863 14.80278568810862"}}, "geometry": {"type": "Point", "coordinates": [59.63254067386885, -57.84559506380134]}}, {"type": "Feature", "properties": {"norad_id": 37491, "name": "COSMOS 2251 DEB", "group": "cosmos-2251-debris", "lat": -66.33481865246729, "lon": 152.3354279222174, "alt_km": 790.4722519328989, "timestamp": "2025-12-02T13:52:17.659089+00:00", "meta": {"OBJECT_NAME": "COSMOS 2251 DEB", "OBJECT_ID": "1993-036BLU", "EPOCH": "2025-12-01T13:55:34.044096", "MEAN_MOTION": 13.75223452, "ECCENTRICITY": 0.03181876, "INCLINATION": 73.9059, "RA_OF_ASC_NODE": 292.8015, "ARG_OF_PERICENTER": 287.8478, "MEAN_ANOMALY": 68.8175, "EPHEMERIS_TYPE": 0, "CLASSIFICATION_TYPE": "U", "NORAD_CAT_ID": 37491, "ELEMENT_SET_NO": 999, "REV_AT_EPOCH": 55593, "BSTAR": 0.0015718852, "MEAN_MOTION_DOT": 2.153e-05, "MEAN_MOTION_DDOT": 0}, "tle": {"line1": "1 37491U 93036BLU 25335.58025514  .00002153  00000+0  15719-2 0  9998", "line2": "2 37491  73.9059 292.8015 0318187 287.8478  68.8175 13.75223452555934"}}, "geometry": {"type": "Point", "coordinates": [152.3354279222174, -66.33481865246729]}}]}